STARLINK-34244          
1 65351U 25190A   26191.82692459  .00016132  00000+0  48761-3 0  9992
2 65351  53.1591 314.4355 0001118  76.8900 283.2227 15.34396694 48639
STARLINK-34716          
1 65352U 25190B   26190.88447259  .00023413  00000+0  80127-3 0  9996
2 65352  53.1611 320.6093 0000770  73.1678 286.9407 15.30153253 48465
STARLINK-34828          
1 65353U 25190C   26191.83780056  .00011252  00000+0  39151-3 0  9997
2 65353  53.1575 315.8923 0001296  99.2857 260.8290 15.30195712 48619
STARLINK-34785          
1 65354U 25190D   26191.86269044  .00014149  00000+0  42917-3 0  9992
2 65354  53.1638 314.6372 0002260  31.6214 328.4924 15.34394168 48169
STARLINK-34823          
1 65355U 25190E   26191.98531360  .00014959  00000+0  51615-3 0  9993
2 65355  53.1594 315.3893 0001240  64.5634 295.5495 15.30201284 48636
STARLINK-34680          
1 65356U 25190F   26191.82735640  .00012800  00000+0  44346-3 0  9990
2 65356  53.1592 316.5353 0000951  71.9672 288.1433 15.30205854 48133
STARLINK-34860          
1 65357U 25190G   26191.87952367  .00025177  00000+0  75357-3 0  9990
2 65357  53.1593 314.7385 0001853  31.7960 328.3154 15.34408491 48162
STARLINK-34782          
1 65358U 25190H   26191.83252322  .00020304  00000+0  69572-3 0  9990
2 65358  53.1567 315.8594 0000756  57.5074 302.5999 15.30202793 48615
STARLINK-34760          
1 65359U 25190J   26191.90944566 -.00004174  00000+0 -12900-3 0  9999
2 65359  53.1569 315.6240 0001145  90.3107 269.8025 15.30173004 48155
STARLINK-34826          
1 65360U 25190K   26191.70926399  .00025312  00000+0  75707-3 0  9992
2 65360  53.1575 315.0985 0000746  84.0657 276.0431 15.34428620 48141
STARLINK-34800          
1 65361U 25190L   26191.96209389  .00020063  00000+0  68744-3 0  9995
2 65361  53.1590 315.2426 0000811  82.7560 277.3533 15.30210798 48162
STARLINK-34817          
1 65362U 25190M   26191.95929830  .00008381  00000+0  25897-3 0  9996
2 65362  53.1592 313.8096 0001123  80.4050 279.7079 15.34390066 48654
STARLINK-34797          
1 65363U 25190N   26192.00347763 -.00009012  00000+0 -25601-3 0  9990
2 65363  53.1599 314.0886 0000755 100.7661 259.3427 15.34387711 48650
STARLINK-34729          
1 65364U 25190P   26191.98848207  .00012212  00000+0  42372-3 0  9994
2 65364  53.1611 315.4121 0002525  25.0563 335.0560 15.30203623 49050
STARLINK-34710          
1 65365U 25190Q   26191.95904684  .00003742  00000+0  13844-3 0  9994
2 65365  53.1601 315.9374 0000968  56.5678 303.5415 15.30194081 48156
STARLINK-34943          
1 65366U 25190R   26191.81017846  .00019798  00000+0  59558-3 0  9995
2 65366  53.1608 315.0157 0000841  61.6978 298.4110 15.34398059 48153
STARLINK-34946          
1 65367U 25190S   26191.86689297  .00018796  00000+0  56599-3 0  9995
2 65367  53.1596 314.6534 0000796  82.1452 277.9641 15.34402020 48636
STARLINK-34259          
1 65368U 25190T   26191.92571976 -.00008455  00000+0 -23955-3 0  9990
2 65368  53.1598 314.3162 0001281  66.6327 293.4810 15.34377440 48640
STARLINK-34913          
1 65369U 25190U   26191.49501521  .00024168  00000+0  72424-3 0  9994
2 65369  53.1578 316.5996 0000982 114.5514 245.5591 15.34394939 48574
STARLINK-34870          
1 65370U 25190V   26191.92421796  .00011493  00000+0  39961-3 0  9995
2 65370  53.1599 315.7173 0001001  76.7896 283.3216 15.30196469 48154
STARLINK-34869          
1 65371U 25190W   26192.18760978  .00015716  00000+0  54095-3 0  9990
2 65371  53.1606 314.5056 0000869  91.8157 268.2944 15.30240467 48664
STARLINK-34903          
1 65372U 25190X   26191.91366042  .00011433  00000+0  39750-3 0  9998
2 65372  53.1596 315.6448 0001129 142.3953 217.7127 15.30203814 48629
STARLINK-34891          
1 65373U 25190Y   26191.90677832 -.00000046  00000+0  97634-5 0  9996
2 65373  53.1599 314.1871 0001185  46.7777 313.3324 15.34377952 48126
STARLINK-34900          
1 65374U 25190Z   26191.91682999  .00015836  00000+0  54529-3 0  9994
2 65374  53.1601 315.6709 0000943  47.1772 312.9308 15.30221373 48104
STARLINK-34305          
1 65375U 25190AA  26191.98003992  .00010595  00000+0  36941-3 0  9997
2 65375  53.1583 315.3570 0002579  23.6741 336.4378 15.30193969 48634
STARLINK-34249          
1 65376U 25190AB  26191.96350237  .00014360  00000+0  43551-3 0  9992
2 65376  53.1610 313.8281 0001143  40.0875 320.0211 15.34385579 49073
STARLINK-34879          
1 65377U 25190AC  26191.97159043  .00012029  00000+0  41781-3 0  9999
2 65377  53.1585 315.2952 0001052  76.4197 283.6921 15.30184501 48636
STARLINK-34912          
1 65378U 25190AD  26191.89994508  .00005331  00000+0  19204-3 0  9997
2 65378  53.1555 315.5589 0000963 117.6269 242.4829 15.30189059 48623
STARLINK-34985          
1 65379U 25191A   26192.15265583  .00001706  00000+0  12208-3 0  9992
2 65379  97.2853  61.2524 0002783  86.9328 273.2218 15.05658950 48845
STARLINK-35051          
1 65380U 25191B   26191.05332846  .00003483  00000+0  24507-3 0  9998
2 65380  97.2860  60.2970 0002206  89.1951 270.9529 15.05662671 48693
