OBJECT_NAME,OBJECT_ID,EPOCH,MEAN_MOTION,ECCENTRICITY,INCLINATION,RA_OF_ASC_NODE,ARG_OF_PERICENTER,MEAN_ANOMALY,EPHEMERIS_TYPE,CLASSIFICATION_TYPE,NORAD_CAT_ID,ELEMENT_SET_NO,REV_AT_EPOCH,BSTAR,MEAN_MOTION_DOT,MEAN_MOTION_DDOT
STARLINK-34244,2025-190A,2026-07-10T19:50:46.284576,15.34396694,.0001118,53.1591,314.4355,76.8900,283.2227,0,U,65351,999,4863,.48761E-3,.16132E-3,0
STARLINK-34716,2025-190B,2026-07-09T21:13:38.431776,15.30153253,.00007702,53.1611,320.6093,73.1678,286.9407,0,U,65352,999,4846,.80127139E-3,.23413E-3,0
STARLINK-34828,2025-190C,2026-07-10T20:06:25.968384,15.30195712,.0001296,53.1575,315.8923,99.2857,260.8290,0,U,65353,999,4861,.39151E-3,.11252E-3,0
STARLINK-34785,2025-190D,2026-07-10T20:42:16.454016,15.34394168,.000226,53.1638,314.6372,31.6214,328.4924,0,U,65354,999,4816,.42917E-3,.14149E-3,0
STARLINK-34823,2025-190E,2026-07-10T23:38:51.095040,15.30201284,.000124,53.1594,315.3893,64.5634,295.5495,0,U,65355,999,4863,.51615E-3,.14959E-3,0
STARLINK-34680,2025-190F,2026-07-10T19:51:23.592960,15.30205854,.0000951,53.1592,316.5353,71.9672,288.1433,0,U,65356,999,4813,.44346E-3,.128E-3,0
STARLINK-34860,2025-190G,2026-07-10T21:06:30.845088,15.34408491,.0001853,53.1593,314.7385,31.7960,328.3154,0,U,65357,999,4816,.75357E-3,.25177E-3,0
STARLINK-34782,2025-190H,2026-07-10T19:58:50.006208,15.30202793,.0000756,53.1567,315.8594,57.5074,302.5999,0,U,65358,999,4861,.69572E-3,.20304E-3,0
STARLINK-34760,2025-190J,2026-07-10T21:49:36.105024,15.30173004,.0001145,53.1569,315.6240,90.3107,269.8025,0,U,65359,999,4815,-.129E-3,-.4174E-4,0
STARLINK-34826,2025-190K,2026-07-10T17:01:20.408736,15.34428620,.0000746,53.1575,315.0985,84.0657,276.0431,0,U,65360,999,4814,.75707E-3,.25312E-3,0
STARLINK-34800,2025-190L,2026-07-10T23:05:24.912096,15.30210798,.0000811,53.1590,315.2426,82.7560,277.3533,0,U,65361,999,4816,.68744E-3,.20063E-3,0
STARLINK-34817,2025-190M,2026-07-10T23:01:23.373120,15.34390066,.0001123,53.1592,313.8096,80.4050,279.7079,0,U,65362,999,4865,.25897E-3,.8381E-4,0
STARLINK-34797,2025-190N,2026-07-11T00:05:00.467232,15.34387711,.0000755,53.1599,314.0886,100.7661,259.3427,0,U,65363,999,4865,-.25601E-3,-.9012E-4,0
STARLINK-34729,2025-190P,2026-07-10T23:43:24.850848,15.30203623,.0002525,53.1611,315.4121,25.0563,335.0560,0,U,65364,999,4905,.42372E-3,.12212E-3,0
STARLINK-34710,2025-190Q,2026-07-10T23:01:01.646976,15.30194081,.0000968,53.1601,315.9374,56.5678,303.5415,0,U,65365,999,4815,.13844E-3,.3742E-4,0
STARLINK-34943,2025-190R,2026-07-10T19:26:39.418944,15.34398059,.0000841,53.1608,315.0157,61.6978,298.4110,0,U,65366,999,4815,.59558E-3,.19798E-3,0
STARLINK-34946,2025-190S,2026-07-10T20:48:19.552608,15.34402020,.0000796,53.1596,314.6534,82.1452,277.9641,0,U,65367,999,4863,.56599E-3,.18796E-3,0
STARLINK-34259,2025-190T,2026-07-10T22:13:02.187264,15.34377440,.0001281,53.1598,314.3162,66.6327,293.4810,0,U,65368,999,4864,-.23955E-3,-.8455E-4,0
STARLINK-34913,2025-190U,2026-07-10T11:52:49.314144,15.34394939,.0000982,53.1578,316.5996,114.5514,245.5591,0,U,65369,999,4857,.72424E-3,.24168E-3,0
STARLINK-34870,2025-190V,2026-07-10T22:10:52.431744,15.30196469,.0001001,53.1599,315.7173,76.7896,283.3216,0,U,65370,999,4815,.39961E-3,.11493E-3,0
STARLINK-34869,2025-190W,2026-07-11T04:30:09.484992,15.30240467,.0000869,53.1606,314.5056,91.8157,268.2944,0,U,65371,999,4866,.54095E-3,.15716E-3,0
STARLINK-34903,2025-190X,2026-07-10T21:55:40.260288,15.30203814,.0001129,53.1596,315.6448,142.3953,217.7127,0,U,65372,999,4862,.3975E-3,.11433E-3,0
STARLINK-34891,2025-190Y,2026-07-10T21:45:45.646848,15.34377952,.0001185,53.1599,314.1871,46.7777,313.3324,0,U,65373,999,4812,.97634E-5,-.46E-6,0
STARLINK-34900,2025-190Z,2026-07-10T22:00:14.111136,15.30221373,.0000943,53.1601,315.6709,47.1772,312.9308,0,U,65374,999,4810,.54529E-3,.15836E-3,0
STARLINK-34305,2025-190AA,2026-07-10T23:31:15.449088,15.30193969,.0002579,53.1583,315.3570,23.6741,336.4378,0,U,65375,999,4863,.36941E-3,.10595E-3,0
STARLINK-34249,2025-190AB,2026-07-10T23:07:26.604768,15.34385579,.0001143,53.1610,313.8281,40.0875,320.0211,0,U,65376,999,4907,.43551E-3,.1436E-3,0
STARLINK-34879,2025-190AC,2026-07-10T23:19:05.413152,15.30184501,.0001052,53.1585,315.2952,76.4197,283.6921,0,U,65377,999,4863,.41781E-3,.12029E-3,0
STARLINK-34912,2025-190AD,2026-07-10T21:35:55.254912,15.30189059,.0000963,53.1555,315.5589,117.6269,242.4829,0,U,65378,999,4862,.19204E-3,.5331E-4,0
STARLINK-34985,2025-191A,2026-07-11T03:39:49.463712,15.05658950,.0002783,97.2853,61.2524,86.9328,273.2218,0,U,65379,999,4884,.12208E-3,.1706E-4,0
STARLINK-35051,2025-191B,2026-07-10T01:16:47.578944,15.05662671,.00022062,97.2860,60.2970,89.1951,270.9529,0,U,65380,999,4869,.24507123E-3,.3483E-4,0
